ORBCOMM FM33            
1 25983U 99065D   25175.72423392  .00000581  00000+0  22778-3 0  9990
2 25983  45.0298 323.1243 0008442 109.2913 250.8850 14.40013404337156
ORBCOMM FM36            
1 25984U 99065E   25175.90746836  .00000628  00000+0  25163-3 0  9995
2 25984  45.0402  54.3074 0003746 351.4379   8.6405 14.38136217335538
ORBCOMM FM35            
1 25985U 99065F   25175.05850336  .00000531  00000+0  22458-3 0  9990
2 25985  45.0401  63.4184 0004200  58.1975 301.9282 14.37106307335774
ORBCOMM FM34            
1 25986U 99065G   25175.71955046  .00000497  00000+0  21316-3 0  9991
2 25986  45.0399  60.7580 0004766  19.6963 340.4068 14.37130094335980
ORBCOMM FM38            
1 33060U 08031A   25175.76691014  .00000916  00000+0  14332-3 0  9999
2 33060  48.4409 279.1251 0004167  70.5012 289.6353 14.81346218915877
ORBCOMM FM41            
1 33061U 08031B   25175.73346687  .00000997  00000+0  15499-3 0  9994
2 33061  48.4447 287.0891 0003485  51.5004 101.4987 14.80931737915352
ORBCOMM FM29            
1 33062U 08031C   25175.62367280  .00001076  00000+0  16474-3 0  9998
2 33062  48.4401 295.4126 0005165  52.3195 321.4996 14.81033946915253
ORBCOMM FM39            
1 33063U 08031D   25175.38906596  .00000920  00000+0  14959-3 0  9994
2 33063  48.4418 320.8812 0006340  22.2228 337.8960 14.79583646914868
